{
"type": "FeatureCollection",
"name": "top_candidates_wv",
"crs": { "type": "name", "properties": { "name": "urn:ogc:def:crs:OGC:1.3:CRS84" } },
"features": [
{ "type": "Feature", "properties": { "Plant_Name": "AURORA ACQUISITION CORPORATION", "Street_Address": "ROUTE 19 NORTH STREET", "City": "HEPZIBAH", "County": "HARRISON", "State": "WV", "Latitude": 39.333418, "Longitude": -80.33397, "source": "FRS", "site_id": "FRS_110013725102", "brownfield_type": "Wood/Lumber Mill", "naics_code": "321", "total_mw": null, "current_owner": "FRANKLIN BRADLEY T", "owner_source": "WV_STATEWIDE", "franchise_tax_status": "", "nearest_sub_kv": 138.0, "dist_to_sub_mi": 1.9679795002134142, "tx_lines_5mi": 4, "sub_capacity_mva_est": "50-200", "grid_capacity_mw_est": 525.0, "county_generation_mw": 2052.0, "transmission_utility": "Monongahela Power Co", "dist_to_pipeline_mi": 2.889825938817709, "pipeline_operator": "Equitrans Inc", "pipeline_type": "Interstate", "pipeline_dia_est": "20-30\"", "pipeline_pressure_psi": 1000.0, "pipeline_operators_5mi": "Dominion Transmission Co; Equitrans Inc", "pipeline_max_dia_inches": 30.0, "pipeline_best_operator": "Dominion Transmission Co", "dist_to_water_mi": 5.3978302538297918, "water_basin": "West Fork (HUC8: 05020002)", "water_permitted_af": "", "parcel_acres": 28.01615796, "cad_acres": "28.0", "osm_acres": "", "acres_source": null, "retirement_confidence": "HIGH", "retirement_signals": "TRI_CLOSED_FLAG; INSPECTION_LAPSED_10YR; AIR_PERMIT_PERMANENTLY_CLOSED", "rcra_corrective_action": "", "nearest_metro": "Pittsburgh, PA", "dist_to_metro_mi": 54.983897264735681, "energy_community": "No", "nri_risk_score": 73.600508905852408, "nri_risk_rating": "Relatively Low", "nri_earthquake": "Very Low", "nri_tornado": "Relatively Low", "nri_hurricane": "Relatively Low", "wetland_overlap": "", "protected_area_nearby": "", "seismic_ss": 0.13, "seismic_s1": 0.056, "seismic_sdc": "B", "soil_type": "Monongahela", "soil_drainage": "Moderately well drained", "soil_hydric": "No", "storm_tornado_count": 1, "storm_wind_count": 133, "fiber_max_speed_mbps": 1000, "has_air_permit": true, "total_score": 85.418637366528486, "score_gas": 11.220348122364582, "score_substation": 5.0, "score_tx_redundancy": 10.0, "score_brownfield": 10.0, "score_state": 11, "score_water": 0.0, "score_metro": 0.83601712254405269, "score_utility_rate": 7.3622721216198457, "score_parcel": 0.0, "score_air_permit": 5.0, "score_fiber": 10.0, "score_opportunity_zone": 0.0, "score_flood_risk": 5.0, "score_seismic": 10.0, "opportunity_zone": false, "flood_zone": "", "eia860_retired": false, "infra_score": 85.418637366528486, "score_retirement_mult": 1.0 }, "geometry": { "type": "Point", "coordinates": [ -80.33397, 39.333418 ] } },
{ "type": "Feature", "properties": { "Plant_Name": "ALLEGHENY WOOD PRODUCTS, INC.", "Street_Address": "212 RESOURCE DRIVE OFF RAGLAND ROAD", "City": "BECKLEY", "County": "RALEIGH", "State": "WV", "Latitude": 37.807258, "Longitude": -81.171511, "source": "FRS", "site_id": "FRS_110020145261", "brownfield_type": "Wood/Lumber Mill", "naics_code": "321", "total_mw": null, "current_owner": "ALLEGHENY WOOD PRODUCTS INC", "owner_source": "WV_STATEWIDE", "franchise_tax_status": "", "nearest_sub_kv": 138.0, "dist_to_sub_mi": 1.4312086977290528, "tx_lines_5mi": 1, "sub_capacity_mva_est": "50-200", "grid_capacity_mw_est": 225.0, "county_generation_mw": 3.0, "transmission_utility": "Appalachian Power Co", "dist_to_pipeline_mi": 2.9419057004090043, "pipeline_operator": "Columbia Gas Trans Co", "pipeline_type": "Interstate", "pipeline_dia_est": "24-30\"", "pipeline_pressure_psi": 1000.0, "pipeline_operators_5mi": "Columbia Gas Trans Co", "pipeline_max_dia_inches": 30.0, "pipeline_best_operator": "Columbia Gas Trans Co", "dist_to_water_mi": 5.8083123004487867, "water_basin": "Lower New (HUC8: 05050004)", "water_permitted_af": "", "parcel_acres": 53.84074381, "cad_acres": "53.8", "osm_acres": "", "acres_source": null, "retirement_confidence": "HIGH", "retirement_signals": "TRI_CLOSED_FLAG; INSPECTION_LAPSED_5YR; NPDES_ALL_TERMINATED", "rcra_corrective_action": "", "nearest_metro": "Charleston, WV", "dist_to_metro_mi": 26.804624597938624, "energy_community": "No", "nri_risk_score": 65.521628498727736, "nri_risk_rating": "Relatively Low", "nri_earthquake": "Relatively Low", "nri_tornado": "Very Low", "nri_hurricane": "Very Low", "wetland_overlap": "", "protected_area_nearby": "", "seismic_ss": 0.24, "seismic_s1": 0.074, "seismic_sdc": "B", "soil_type": "Clifftop", "soil_drainage": "Well drained", "soil_hydric": "No", "storm_tornado_count": 0, "storm_wind_count": 85, "fiber_max_speed_mbps": 0, "has_air_permit": false, "total_score": 65.095007777061667, "score_gas": 11.116188599181992, "score_substation": 5.0, "score_tx_redundancy": 1.0, "score_brownfield": 10.0, "score_state": 11, "score_water": 0.0, "score_metro": 5.5325625670102285, "score_utility_rate": 4.4462566108694404, "score_parcel": 2.0, "score_air_permit": 0.0, "score_fiber": 0.0, "score_opportunity_zone": 0.0, "score_flood_risk": 5.0, "score_seismic": 10.0, "opportunity_zone": false, "flood_zone": "", "eia860_retired": false, "infra_score": 65.095007777061667, "score_retirement_mult": 1.0 }, "geometry": { "type": "Point", "coordinates": [ -81.171511, 37.807258 ] } },
{ "type": "Feature", "properties": { "Plant_Name": "Kanawha River", "Street_Address": "U.S. Route 60", "City": "Glasgow", "County": "Kanawha", "State": "WV", "Latitude": 38.2056, "Longitude": -81.4211, "source": "EIA860", "site_id": "EIA_3936.0", "brownfield_type": "Coal", "naics_code": "", "total_mw": 439.2, "current_owner": "APPALACHIAN POWER COMPANY", "owner_source": "WV_STATEWIDE", "franchise_tax_status": "", "nearest_sub_kv": 345.0, "dist_to_sub_mi": 0.065032142435253404, "tx_lines_5mi": 3, "sub_capacity_mva_est": "500-1000", "grid_capacity_mw_est": 1500.0, "county_generation_mw": 28.0, "transmission_utility": "Appalachian Power Co", "dist_to_pipeline_mi": 0.46105236365373664, "pipeline_operator": "Columbia Gas Trans Co", "pipeline_type": "Interstate", "pipeline_dia_est": "24-30\"", "pipeline_pressure_psi": 1000.0, "pipeline_operators_5mi": "Columbia Gas Trans Co; Dominion Transmission Co", "pipeline_max_dia_inches": 30.0, "pipeline_best_operator": "Columbia Gas Trans Co", "dist_to_water_mi": 0.23895689233952622, "water_basin": "Upper Kanawha (HUC8: 05050006)", "water_permitted_af": "", "parcel_acres": 69.93689053, "cad_acres": "69.9", "osm_acres": "", "acres_source": null, "retirement_confidence": "MEDIUM", "retirement_signals": "EIA_RETIRED_GENERATOR; TRI_CLOSED_FLAG", "rcra_corrective_action": "", "nearest_metro": "Charleston, WV", "dist_to_metro_mi": 0.0, "energy_community": "No", "nri_risk_score": 94.529262086513995, "nri_risk_rating": "Relatively High", "nri_earthquake": "Relatively Low", "nri_tornado": "Relatively Low", "nri_hurricane": "Relatively Low", "wetland_overlap": "", "protected_area_nearby": "", "seismic_ss": 0.21, "seismic_s1": 0.071, "seismic_sdc": "B", "soil_type": "Urban land", "soil_drainage": "", "soil_hydric": "No", "storm_tornado_count": 8, "storm_wind_count": 286, "fiber_max_speed_mbps": 0, "has_air_permit": false, "total_score": 93.101630949782503, "score_gas": 20.0, "score_substation": 12.0, "score_tx_redundancy": 7.0, "score_brownfield": 14.0, "score_state": 11, "score_water": 8.0, "score_metro": 10.0, "score_utility_rate": 4.4462566108694404, "score_parcel": 2.0, "score_air_permit": 0.0, "score_fiber": 0.0, "score_opportunity_zone": 0.0, "score_flood_risk": 5.0, "score_seismic": 10.0, "opportunity_zone": false, "flood_zone": "", "eia860_retired": false, "infra_score": 103.44625661086944, "score_retirement_mult": 0.9 }, "geometry": { "type": "Point", "coordinates": [ -81.4211, 38.2056 ] } },
{ "type": "Feature", "properties": { "Plant_Name": "GREAT LAKES CHEMICAL CORP.", "Street_Address": "200 PICKENS ROAD", "City": "NITRO", "County": "PUTNAM", "State": "WV", "Latitude": 38.435238, "Longitude": -81.846532, "source": "FRS", "site_id": "FRS_110000344191", "brownfield_type": "Chemical Plant", "naics_code": "325", "total_mw": null, "current_owner": "PAR INDUSTRIAL CORP", "owner_source": "WV_STATEWIDE", "franchise_tax_status": "", "nearest_sub_kv": 138.0, "dist_to_sub_mi": 1.9442371076727794, "tx_lines_5mi": 5, "sub_capacity_mva_est": "50-200", "grid_capacity_mw_est": 625.0, "county_generation_mw": 2957.0, "transmission_utility": "Appalachian Power Co", "dist_to_pipeline_mi": 1.7514679005836267, "pipeline_operator": "Columbia Gas Trans Co", "pipeline_type": "Interstate", "pipeline_dia_est": "24-30\"", "pipeline_pressure_psi": 1000.0, "pipeline_operators_5mi": "Columbia Gas Trans Co", "pipeline_max_dia_inches": 30.0, "pipeline_best_operator": "Columbia Gas Trans Co", "dist_to_water_mi": 1.2948064647746858, "water_basin": "Lower Kanawha (HUC8: 05050008)", "water_permitted_af": "", "parcel_acres": 80.16474297000001, "cad_acres": "80.2", "osm_acres": "", "acres_source": null, "retirement_confidence": "MEDIUM", "retirement_signals": "INSPECTION_LAPSED_5YR; NPDES_ALL_TERMINATED", "rcra_corrective_action": "GREAT LAKES CHEMICAL CORPORATION", "nearest_metro": "Charleston, WV", "dist_to_metro_mi": 0.0, "energy_community": "No", "nri_risk_score": 74.013994910941477, "nri_risk_rating": "Relatively Low", "nri_earthquake": "Very Low", "nri_tornado": "Very Low", "nri_hurricane": "Very Low", "wetland_overlap": "Freshwater Pond", "protected_area_nearby": "", "seismic_ss": 0.2, "seismic_s1": 0.072, "seismic_sdc": "B", "soil_type": "Urban land", "soil_drainage": "", "soil_hydric": "No", "storm_tornado_count": 3, "storm_wind_count": 168, "fiber_max_speed_mbps": 1000, "has_air_permit": false, "total_score": 89.870979313188059, "score_gas": 13.0, "score_substation": 5.0, "score_tx_redundancy": 10.0, "score_brownfield": 14.0, "score_state": 11, "score_water": 5.4103870704506285, "score_metro": 10.0, "score_utility_rate": 4.4462566108694404, "score_parcel": 2.0, "score_air_permit": 0.0, "score_fiber": 10.0, "score_opportunity_zone": 0.0, "score_flood_risk": 5.0, "score_seismic": 10.0, "opportunity_zone": false, "flood_zone": "", "eia860_retired": false, "infra_score": 99.856643681320065, "score_retirement_mult": 0.9 }, "geometry": { "type": "Point", "coordinates": [ -81.846532, 38.435238 ] } },
{ "type": "Feature", "properties": { "Plant_Name": "APPLIED PARTNERS, INC., RAVENSWOOD", "Street_Address": "CENTURY RD", "City": "RAVENSWOOD", "County": "JACKSON", "State": "WV", "Latitude": 38.9309, "Longitude": -81.8229, "source": "FRS", "site_id": "FRS_110032631267", "brownfield_type": "Steel/Metals Plant", "naics_code": "331", "total_mw": null, "current_owner": "PECHINEY ROLLED PRODUCTS LLC", "owner_source": "WV_STATEWIDE", "franchise_tax_status": "", "nearest_sub_kv": 138.0, "dist_to_sub_mi": 0.12524877633323142, "tx_lines_5mi": 2, "sub_capacity_mva_est": "50-200", "grid_capacity_mw_est": 325.0, "county_generation_mw": null, "transmission_utility": "", "dist_to_pipeline_mi": 3.1580128914292964, "pipeline_operator": "Columbia Gas Trans Co", "pipeline_type": "Interstate", "pipeline_dia_est": "24-30\"", "pipeline_pressure_psi": 1000.0, "pipeline_operators_5mi": "Columbia Gas Trans Co", "pipeline_max_dia_inches": 30.0, "pipeline_best_operator": "Columbia Gas Trans Co", "dist_to_water_mi": 1.5145470000744883, "water_basin": "Upper Ohio-Shade (HUC8: 05030202)", "water_permitted_af": "", "parcel_acres": 504.71691700999997, "cad_acres": "504.7", "osm_acres": "", "acres_source": null, "retirement_confidence": "MEDIUM", "retirement_signals": "AIR_PERMIT_PERMANENTLY_CLOSED; NPDES_ALL_TERMINATED", "rcra_corrective_action": "", "nearest_metro": "Charleston, WV", "dist_to_metro_mi": 25.668096819710708, "energy_community": "No", "nri_risk_score": 56.456743002544528, "nri_risk_rating": "Relatively Low", "nri_earthquake": "Very Low", "nri_tornado": "Very Low", "nri_hurricane": "Very Low", "wetland_overlap": "", "protected_area_nearby": "", "seismic_ss": 0.18, "seismic_s1": 0.068, "seismic_sdc": "B", "soil_type": "Udorthents, smoothed", "soil_drainage": "", "soil_hydric": "No", "storm_tornado_count": 2, "storm_wind_count": 57, "fiber_max_speed_mbps": 0, "has_air_permit": true, "total_score": 80.765222581794447, "score_gas": 10.683974217141408, "score_substation": 5.0, "score_tx_redundancy": 4.0, "score_brownfield": 16.0, "score_state": 11, "score_water": 4.9709059998510234, "score_metro": 5.7219838633815474, "score_utility_rate": 7.3622721216198457, "score_parcel": 5.0, "score_air_permit": 5.0, "score_fiber": 0.0, "score_opportunity_zone": 0.0, "score_flood_risk": 5.0, "score_seismic": 10.0, "opportunity_zone": false, "flood_zone": "", "eia860_retired": false, "infra_score": 89.73913620199383, "score_retirement_mult": 0.9 }, "geometry": { "type": "Point", "coordinates": [ -81.8229, 38.9309 ] } },
{ "type": "Feature", "properties": { "Plant_Name": "WILLERT HOME PRODS", "Street_Address": "21ST & BEECH ST.", "City": "KENOVA", "County": "WAYNE", "State": "WV", "Latitude": 38.40665, "Longitude": -82.58465, "source": "FRS", "site_id": "FRS_110000585974", "brownfield_type": "Chemical Plant", "naics_code": "325", "total_mw": null, "current_owner": "None", "owner_source": "WV_STATEWIDE", "franchise_tax_status": "", "nearest_sub_kv": 138.0, "dist_to_sub_mi": 0.41470796835586837, "tx_lines_5mi": 2, "sub_capacity_mva_est": "50-200", "grid_capacity_mw_est": 325.0, "county_generation_mw": 872.0, "transmission_utility": "Appalachian Power Co", "dist_to_pipeline_mi": 0.75924768262244335, "pipeline_operator": "Columbia Gas Trans Co", "pipeline_type": "Interstate", "pipeline_dia_est": "24-30\"", "pipeline_pressure_psi": 1000.0, "pipeline_operators_5mi": "Columbia Gas Trans Co; Columbia Gulf Pipeline", "pipeline_max_dia_inches": 30.0, "pipeline_best_operator": "Columbia Gas Trans Co", "dist_to_water_mi": 3.0195018856378724, "water_basin": "Raccoon-Symmes (HUC8: 05090101)", "water_permitted_af": "", "parcel_acres": 733.51740034, "cad_acres": "733.5", "osm_acres": "", "acres_source": null, "retirement_confidence": "MEDIUM", "retirement_signals": "INSPECTION_LAPSED_5YR; NPDES_ALL_TERMINATED", "rcra_corrective_action": "", "nearest_metro": "Huntington, WV--KY--OH", "dist_to_metro_mi": 0.0, "energy_community": "No", "nri_risk_score": 79.802798982188293, "nri_risk_rating": "Relatively Low", "nri_earthquake": "Very Low", "nri_tornado": "Relatively Low", "nri_hurricane": "Very Low", "wetland_overlap": "", "protected_area_nearby": "", "seismic_ss": 0.21, "seismic_s1": 0.077, "seismic_sdc": "B", "soil_type": "Urban land", "soil_drainage": "", "soil_hydric": "No", "storm_tornado_count": 3, "storm_wind_count": 95, "fiber_max_speed_mbps": 0, "has_air_permit": false, "total_score": 79.584079252708406, "score_gas": 17.0, "score_substation": 5.0, "score_tx_redundancy": 4.0, "score_brownfield": 14.0, "score_state": 11, "score_water": 2.9804981143621276, "score_metro": 10.0, "score_utility_rate": 4.4462566108694404, "score_parcel": 5.0, "score_air_permit": 0.0, "score_fiber": 0.0, "score_opportunity_zone": 0.0, "score_flood_risk": 5.0, "score_seismic": 10.0, "opportunity_zone": false, "flood_zone": "", "eia860_retired": false, "infra_score": 88.426754725231561, "score_retirement_mult": 0.9 }, "geometry": { "type": "Point", "coordinates": [ -82.58465, 38.40665 ] } },
{ "type": "Feature", "properties": { "Plant_Name": "CABOT CORP. OHIO RIVER PLANT", "Street_Address": "1 CABOT DRIVE", "City": "WAVERLY", "County": "WOOD", "State": "WV", "Latitude": 39.33455, "Longitude": -81.390904, "source": "FRS", "site_id": "FRS_110000499719", "brownfield_type": "Chemical Plant", "naics_code": "325", "total_mw": null, "current_owner": "HACKATHORN WILLIAM D HACKATHORN CHRYSTINA L", "owner_source": "WV_STATEWIDE", "franchise_tax_status": "", "nearest_sub_kv": 138.0, "dist_to_sub_mi": 0.88305433586739679, "tx_lines_5mi": 3, "sub_capacity_mva_est": "50-200", "grid_capacity_mw_est": 425.0, "county_generation_mw": 42.0, "transmission_utility": "Ohio Power Co", "dist_to_pipeline_mi": 1.7007448332593069, "pipeline_operator": "Dominion Transmission Co", "pipeline_type": "Interstate", "pipeline_dia_est": "20-36\" (Interstate)", "pipeline_pressure_psi": 1000.0, "pipeline_operators_5mi": "Dominion Transmission Co", "pipeline_max_dia_inches": 36.0, "pipeline_best_operator": "Dominion Transmission Co", "dist_to_water_mi": 4.7922928728717391, "water_basin": "Little Muskingum-Middle Island (HUC8: 05030201)", "water_permitted_af": "", "parcel_acres": 45.7003903, "cad_acres": "45.7", "osm_acres": "", "acres_source": null, "retirement_confidence": "MEDIUM", "retirement_signals": "INSPECTION_LAPSED_10YR; NPDES_ALL_TERMINATED", "rcra_corrective_action": "", "nearest_metro": "Charleston, WV", "dist_to_metro_mi": 58.204358839800236, "energy_community": "No", "nri_risk_score": 79.834605597964384, "nri_risk_rating": "Relatively Low", "nri_earthquake": "Very Low", "nri_tornado": "Relatively Low", "nri_hurricane": "Relatively Low", "wetland_overlap": "", "protected_area_nearby": "", "seismic_ss": 0.15, "seismic_s1": 0.062, "seismic_sdc": "B", "soil_type": "Upshur", "soil_drainage": "Well drained", "soil_hydric": "No", "storm_tornado_count": 2, "storm_wind_count": 125, "fiber_max_speed_mbps": 0, "has_air_permit": false, "total_score": 66.48232749790327, "score_gas": 13.0, "score_substation": 5.0, "score_tx_redundancy": 7.0, "score_brownfield": 14.0, "score_state": 11, "score_water": 1.2077071271282609, "score_metro": 0.29927352669996021, "score_utility_rate": 7.3622721216198457, "score_parcel": 0.0, "score_air_permit": 0.0, "score_fiber": 0.0, "score_opportunity_zone": 0.0, "score_flood_risk": 5.0, "score_seismic": 10.0, "opportunity_zone": false, "flood_zone": "", "eia860_retired": false, "infra_score": 73.869252775448075, "score_retirement_mult": 0.9 }, "geometry": { "type": "Point", "coordinates": [ -81.390904, 39.33455 ] } },
{ "type": "Feature", "properties": { "Plant_Name": "EXCEL-PREMET INC", "Street_Address": "2140 PLEASANT VALLEY ROAD", "City": "HUNTINGTON", "County": "CABELL", "State": "WV", "Latitude": 38.389382, "Longitude": -82.452214, "source": "FRS", "site_id": "FRS_110001931580", "brownfield_type": "Steel/Metals Plant", "naics_code": "331", "total_mw": null, "current_owner": "HAMER JAMES C TRUST", "owner_source": "WV_STATEWIDE", "franchise_tax_status": "", "nearest_sub_kv": 138.0, "dist_to_sub_mi": 1.729430436963225, "tx_lines_5mi": 1, "sub_capacity_mva_est": "50-200", "grid_capacity_mw_est": 225.0, "county_generation_mw": null, "transmission_utility": "Appalachian Power Co", "dist_to_pipeline_mi": 1.3414332182713624, "pipeline_operator": "Columbia Gas Trans Co", "pipeline_type": "Interstate", "pipeline_dia_est": "24-30\"", "pipeline_pressure_psi": 1000.0, "pipeline_operators_5mi": "Columbia Gas Trans Co", "pipeline_max_dia_inches": 30.0, "pipeline_best_operator": "Columbia Gas Trans Co", "dist_to_water_mi": 4.1855151978347243, "water_basin": "Raccoon-Symmes (HUC8: 05090101)", "water_permitted_af": "", "parcel_acres": 54.88602386, "cad_acres": "54.9", "osm_acres": "", "acres_source": null, "retirement_confidence": "LOW", "retirement_signals": "NPDES_ALL_TERMINATED", "rcra_corrective_action": "", "nearest_metro": "Huntington, WV--KY--OH", "dist_to_metro_mi": 0.10366154154198753, "energy_community": "No", "nri_risk_score": 85.368956743002542, "nri_risk_rating": "Relatively Moderate", "nri_earthquake": "Relatively Low", "nri_tornado": "Relatively Low", "nri_hurricane": "Very Low", "wetland_overlap": "", "protected_area_nearby": "", "seismic_ss": 0.2, "seismic_s1": 0.076, "seismic_sdc": "B", "soil_type": "Urban land", "soil_drainage": "", "soil_hydric": "No", "storm_tornado_count": 2, "storm_wind_count": 78, "fiber_max_speed_mbps": 1200, "has_air_permit": false, "total_score": 66.932598367083301, "score_gas": 13.0, "score_substation": 5.0, "score_tx_redundancy": 1.0, "score_brownfield": 16.0, "score_state": 11, "score_water": 1.8144848021652757, "score_metro": 9.9827230764096679, "score_utility_rate": 4.4462566108694404, "score_parcel": 2.0, "score_air_permit": 0.0, "score_fiber": 10.0, "score_opportunity_zone": 0.0, "score_flood_risk": 5.0, "score_seismic": 10.0, "opportunity_zone": false, "flood_zone": "", "eia860_retired": false, "infra_score": 89.243464489444392, "score_retirement_mult": 0.75 }, "geometry": { "type": "Point", "coordinates": [ -82.452214, 38.389382 ] } },
{ "type": "Feature", "properties": { "Plant_Name": "Philip Sporn Power Plant", "Street_Address": "", "City": "New Haven", "County": "", "State": "WV", "Latitude": 38.973614, "Longitude": -81.929753, "source": "GEM_COAL", "site_id": "GEM_L100000104261", "brownfield_type": "Coal", "naics_code": "", "total_mw": 1105.5, "current_owner": "NEW HAVEN INDUSTRIAL PARK LLC", "owner_source": "WV_STATEWIDE", "franchise_tax_status": "", "nearest_sub_kv": 138.0, "dist_to_sub_mi": 0.58393846309611563, "tx_lines_5mi": 10, "sub_capacity_mva_est": "50-200", "grid_capacity_mw_est": 1125.0, "county_generation_mw": null, "transmission_utility": "", "dist_to_pipeline_mi": 2.5837743368979025, "pipeline_operator": "Columbia Gas Trans Co", "pipeline_type": "Interstate", "pipeline_dia_est": "24-30\"", "pipeline_pressure_psi": 1000.0, "pipeline_operators_5mi": "Columbia Gas Trans Co", "pipeline_max_dia_inches": 30.0, "pipeline_best_operator": "Columbia Gas Trans Co", "dist_to_water_mi": 0.0, "water_basin": "Upper Ohio-Shade (HUC8: 05030202)", "water_permitted_af": "", "parcel_acres": 208.64507602, "cad_acres": "208.6", "osm_acres": "", "acres_source": null, "retirement_confidence": "LOW", "retirement_signals": "TRI_CLOSED_FLAG", "rcra_corrective_action": "", "nearest_metro": "Charleston, WV", "dist_to_metro_mi": 27.17820041302906, "energy_community": "No", "nri_risk_score": null, "nri_risk_rating": "", "nri_earthquake": "", "nri_tornado": "", "nri_hurricane": "", "wetland_overlap": "Freshwater Pond", "protected_area_nearby": "", "seismic_ss": 0.18, "seismic_s1": 0.068, "seismic_sdc": "B", "soil_type": "Miscellaneous water", "soil_drainage": "", "soil_hydric": "No", "storm_tornado_count": 0, "storm_wind_count": 0, "fiber_max_speed_mbps": 0, "has_air_permit": false, "total_score": 66.227063443024505, "score_gas": 11.832451326204195, "score_substation": 5.0, "score_tx_redundancy": 10.0, "score_brownfield": 14.0, "score_state": 11, "score_water": 8.0, "score_metro": 5.4702999311618239, "score_utility_rate": 5.0, "score_parcel": 3.0, "score_air_permit": 0.0, "score_fiber": 0.0, "score_opportunity_zone": 0.0, "score_flood_risk": 5.0, "score_seismic": 10.0, "opportunity_zone": false, "flood_zone": "", "eia860_retired": false, "infra_score": 88.302751257366012, "score_retirement_mult": 0.75 }, "geometry": { "type": "Point", "coordinates": [ -81.929753, 38.973614 ] } },
{ "type": "Feature", "properties": { "Plant_Name": "Philip Sporn", "Street_Address": "State Route 62", "City": "Graham Station", "County": "Mason", "State": "WV", "Latitude": 38.9669, "Longitude": -81.9231, "source": "EIA860", "site_id": "EIA_3938.0", "brownfield_type": "Coal", "naics_code": "", "total_mw": 1105.5, "current_owner": "NEW HAVEN INDUSTRIAL PARK LLC", "owner_source": "WV_STATEWIDE", "franchise_tax_status": "", "nearest_sub_kv": 138.0, "dist_to_sub_mi": 0.36231379282418152, "tx_lines_5mi": 10, "sub_capacity_mva_est": "50-200", "grid_capacity_mw_est": 1125.0, "county_generation_mw": 1300.0, "transmission_utility": "Appalachian Power Co", "dist_to_pipeline_mi": 3.1403408248431774, "pipeline_operator": "Columbia Gas Trans Co", "pipeline_type": "Interstate", "pipeline_dia_est": "24-30\"", "pipeline_pressure_psi": 1000.0, "pipeline_operators_5mi": "Columbia Gas Trans Co", "pipeline_max_dia_inches": 30.0, "pipeline_best_operator": "Columbia Gas Trans Co", "dist_to_water_mi": 0.094547204208833613, "water_basin": "Upper Ohio-Shade (HUC8: 05030202)", "water_permitted_af": "", "parcel_acres": 208.64507602, "cad_acres": "208.6", "osm_acres": "", "acres_source": null, "retirement_confidence": "LOW", "retirement_signals": "EIA_RETIRED_GENERATOR", "rcra_corrective_action": "", "nearest_metro": "Charleston, WV", "dist_to_metro_mi": 26.762256014107955, "energy_community": "No", "nri_risk_score": 57.442748091603058, "nri_risk_rating": "Relatively Low", "nri_earthquake": "Very Low", "nri_tornado": "Very Low", "nri_hurricane": "Very Low", "wetland_overlap": "Riverine", "protected_area_nearby": "", "seismic_ss": 0.18, "seismic_s1": 0.068, "seismic_sdc": "B", "soil_type": "Udorthents, smoothed", "soil_drainage": "", "soil_hydric": "No", "storm_tornado_count": 0, "storm_wind_count": 80, "fiber_max_speed_mbps": 0, "has_air_permit": false, "total_score": 65.028899219123815, "score_gas": 10.719318350313646, "score_substation": 5.0, "score_tx_redundancy": 10.0, "score_brownfield": 14.0, "score_state": 11, "score_water": 8.0, "score_metro": 5.5396239976486736, "score_utility_rate": 4.4462566108694404, "score_parcel": 3.0, "score_air_permit": 0.0, "score_fiber": 0.0, "score_opportunity_zone": 0.0, "score_flood_risk": 5.0, "score_seismic": 10.0, "opportunity_zone": false, "flood_zone": "", "eia860_retired": false, "infra_score": 86.705198958831758, "score_retirement_mult": 0.75 }, "geometry": { "type": "Point", "coordinates": [ -81.9231, 38.9669 ] } },
{ "type": "Feature", "properties": { "Plant_Name": "Mitchland LLC", "Street_Address": "3334 DuPont Ave", "City": "BELLE", "County": "", "State": "WV", "Latitude": 38.21428098, "Longitude": -81.45855899, "source": "SRP_REDEV_MAPPER", "site_id": "SRP_254236", "brownfield_type": "Other Brownfield", "naics_code": "", "total_mw": null, "current_owner": "MITCHLAND LLC", "owner_source": "WV_STATEWIDE", "franchise_tax_status": "", "nearest_sub_kv": 138.0, "dist_to_sub_mi": 1.4341082463082973, "tx_lines_5mi": 3, "sub_capacity_mva_est": "50-200", "grid_capacity_mw_est": 425.0, "county_generation_mw": null, "transmission_utility": "", "dist_to_pipeline_mi": 2.2859638523318906, "pipeline_operator": "Columbia Gas Trans Co", "pipeline_type": "Interstate", "pipeline_dia_est": "24-30\"", "pipeline_pressure_psi": 1000.0, "pipeline_operators_5mi": "Columbia Gas Trans Co", "pipeline_max_dia_inches": 30.0, "pipeline_best_operator": "Columbia Gas Trans Co", "dist_to_water_mi": 1.7292757870846469, "water_basin": "Upper Kanawha (HUC8: 05050006)", "water_permitted_af": "", "parcel_acres": 205.99, "cad_acres": "206.0", "osm_acres": "", "acres_source": "EPA_REDEV_MAPPER", "retirement_confidence": "LOW", "retirement_signals": "TRI_CLOSED_FLAG", "rcra_corrective_action": "WRECK-A-MENDED", "nearest_metro": "Charleston, WV", "dist_to_metro_mi": 0.0, "energy_community": "No", "nri_risk_score": null, "nri_risk_rating": "", "nri_earthquake": "", "nri_tornado": "", "nri_hurricane": "", "wetland_overlap": "", "protected_area_nearby": "", "seismic_ss": 0.21, "seismic_s1": 0.071, "seismic_sdc": "B", "soil_type": "Urban land", "soil_drainage": "", "soil_hydric": "No", "storm_tornado_count": 0, "storm_wind_count": 0, "fiber_max_speed_mbps": 0, "has_air_permit": false, "total_score": 58.477140540875197, "score_gas": 12.428072295336218, "score_substation": 5.0, "score_tx_redundancy": 7.0, "score_brownfield": 5.0, "score_state": 11, "score_water": 4.5414484258307066, "score_metro": 10.0, "score_utility_rate": 5.0, "score_parcel": 3.0, "score_air_permit": 0.0, "score_fiber": 0.0, "score_opportunity_zone": 0.0, "score_flood_risk": 5.0, "score_seismic": 10.0, "opportunity_zone": false, "flood_zone": "", "eia860_retired": false, "infra_score": 77.96952072116693, "score_retirement_mult": 0.75 }, "geometry": { "type": "Point", "coordinates": [ -81.45855899, 38.214280980000026 ] } },
{ "type": "Feature", "properties": { "Plant_Name": "FLINT GROUP PRINTING SYSTEMS US LLC, HUNTINGTON", "Street_Address": "2401 5TH AVENUE", "City": "HUNTINGTON", "County": "CABELL", "State": "WV", "Latitude": 38.424171, "Longitude": -82.415414, "source": "FRS", "site_id": "FRS_110056969419", "brownfield_type": "Chemical Plant", "naics_code": "325", "total_mw": null, "current_owner": "None", "owner_source": "WV_STATEWIDE", "franchise_tax_status": "", "nearest_sub_kv": 138.0, "dist_to_sub_mi": 0.60604864827107763, "tx_lines_5mi": 3, "sub_capacity_mva_est": "50-200", "grid_capacity_mw_est": 425.0, "county_generation_mw": null, "transmission_utility": "Appalachian Power Co", "dist_to_pipeline_mi": 2.7557885440307337, "pipeline_operator": "Columbia Gas Trans Co", "pipeline_type": "Interstate", "pipeline_dia_est": "24-30\"", "pipeline_pressure_psi": 1000.0, "pipeline_operators_5mi": "Columbia Gas Trans Co", "pipeline_max_dia_inches": 30.0, "pipeline_best_operator": "Columbia Gas Trans Co", "dist_to_water_mi": 6.9560628127703845, "water_basin": "Raccoon-Symmes (HUC8: 05090101)", "water_permitted_af": "", "parcel_acres": 4467.9847194100003, "cad_acres": "4468.0", "osm_acres": "", "acres_source": null, "retirement_confidence": "VERY_HIGH", "retirement_signals": "TRI_CLOSED_FLAG; INSPECTION_LAPSED_5YR; AIR_PERMIT_PERMANENTLY_CLOSED; ACRES_BROWNFIELD", "rcra_corrective_action": "", "nearest_metro": "Huntington, WV--KY--OH", "dist_to_metro_mi": 0.0, "energy_community": "No", "nri_risk_score": 85.368956743002542, "nri_risk_rating": "Relatively Moderate", "nri_earthquake": "Relatively Low", "nri_tornado": "Relatively Low", "nri_hurricane": "Very Low", "wetland_overlap": "", "protected_area_nearby": "", "seismic_ss": 0.2, "seismic_s1": 0.076, "seismic_sdc": "B", "soil_type": "Urban land", "soil_drainage": "", "soil_hydric": "No", "storm_tornado_count": 2, "storm_wind_count": 78, "fiber_max_speed_mbps": 1200, "has_air_permit": true, "total_score": 97.934679522807969, "score_gas": 11.488422911938532, "score_substation": 5.0, "score_tx_redundancy": 7.0, "score_brownfield": 14.0, "score_state": 11, "score_water": 0.0, "score_metro": 10.0, "score_utility_rate": 4.4462566108694404, "score_parcel": 5.0, "score_air_permit": 5.0, "score_fiber": 10.0, "score_opportunity_zone": 0.0, "score_flood_risk": 5.0, "score_seismic": 10.0, "opportunity_zone": false, "flood_zone": "", "eia860_retired": false, "infra_score": 97.934679522807969, "score_retirement_mult": 1.0 }, "geometry": { "type": "Point", "coordinates": [ -82.415414, 38.424171 ] } },
{ "type": "Feature", "properties": { "Plant_Name": "Morgantown Energy Facility (WV)", "Street_Address": "", "City": "Morgantown", "County": "", "State": "WV", "Latitude": 39.639998, "Longitude": -79.961394, "source": "GEM_COAL", "site_id": "GEM_L100000104257", "brownfield_type": "Coal", "naics_code": "", "total_mw": 68.9, "current_owner": "None", "owner_source": "WV_STATEWIDE", "franchise_tax_status": "", "nearest_sub_kv": 138.0, "dist_to_sub_mi": 0.047063367476234547, "tx_lines_5mi": 3, "sub_capacity_mva_est": "50-200", "grid_capacity_mw_est": 425.0, "county_generation_mw": null, "transmission_utility": "", "dist_to_pipeline_mi": 0.22682386205148658, "pipeline_operator": "Dominion Transmission Co", "pipeline_type": "Interstate", "pipeline_dia_est": "20-36\" (Interstate)", "pipeline_pressure_psi": 1000.0, "pipeline_operators_5mi": "Dominion Transmission Co", "pipeline_max_dia_inches": 36.0, "pipeline_best_operator": "Dominion Transmission Co", "dist_to_water_mi": 1.9246475798962139, "water_basin": "Upper Monongahela (HUC8: 05020003)", "water_permitted_af": "", "parcel_acres": 819.70369252, "cad_acres": "819.7", "osm_acres": "", "acres_source": null, "retirement_confidence": "UNVERIFIED", "retirement_signals": "", "rcra_corrective_action": "", "nearest_metro": "Pittsburgh, PA", "dist_to_metro_mi": 36.609794572195206, "energy_community": "No", "nri_risk_score": null, "nri_risk_rating": "", "nri_earthquake": "", "nri_tornado": "", "nri_hurricane": "", "wetland_overlap": "Riverine", "protected_area_nearby": "", "seismic_ss": 0.12, "seismic_s1": 0.053, "seismic_sdc": "B", "soil_type": "Urban land", "soil_drainage": "", "soil_hydric": "No", "storm_tornado_count": 0, "storm_wind_count": 0, "fiber_max_speed_mbps": 10000, "has_air_permit": false, "total_score": 85.041711549782107, "score_gas": 20.0, "score_substation": 5.0, "score_tx_redundancy": 7.0, "score_brownfield": 14.0, "score_state": 11, "score_water": 4.1507048402075721, "score_metro": 3.8983675713007981, "score_utility_rate": 5.0, "score_parcel": 5.0, "score_air_permit": 0.0, "score_fiber": 10.0, "score_opportunity_zone": 0.0, "score_flood_risk": 5.0, "score_seismic": 10.0, "opportunity_zone": false, "flood_zone": "", "eia860_retired": true, "infra_score": 100.04907241150836, "score_retirement_mult": 0.85 }, "geometry": { "type": "Point", "coordinates": [ -79.961394, 39.639998 ] } },
{ "type": "Feature", "properties": { "Plant_Name": "Weirton Frontier Browns Island Former Coke Plant", "Street_Address": "Browns Island", "City": "WEIRTON", "County": "", "State": "WV", "Latitude": 40.42316719, "Longitude": -80.6096077, "source": "SRP_REDEV_MAPPER", "site_id": "SRP_261097", "brownfield_type": "Steel/Metals Plant", "naics_code": "", "total_mw": null, "current_owner": "MINGO JUNCTION STEEL WORKS", "owner_source": "WV_STATEWIDE", "franchise_tax_status": "", "nearest_sub_kv": 500.0, "dist_to_sub_mi": 2.9926530628697399, "tx_lines_5mi": 6, "sub_capacity_mva_est": "1000-2000", "grid_capacity_mw_est": 3000.0, "county_generation_mw": null, "transmission_utility": "", "dist_to_pipeline_mi": 0.47371524727639519, "pipeline_operator": "Columbia Gas Trans Co", "pipeline_type": "Interstate", "pipeline_dia_est": "24-30\"", "pipeline_pressure_psi": 1000.0, "pipeline_operators_5mi": "Columbia Gas Trans Co; Rover Pipeline", "pipeline_max_dia_inches": 30.0, "pipeline_best_operator": "Columbia Gas Trans Co", "dist_to_water_mi": 7.3714665290428352, "water_basin": "Upper Ohio (HUC8: 05030101)", "water_permitted_af": "", "parcel_acres": 249.0, "cad_acres": "249.0", "osm_acres": "", "acres_source": "EPA_REDEV_MAPPER", "retirement_confidence": "UNVERIFIED", "retirement_signals": "", "rcra_corrective_action": "", "nearest_metro": "Pittsburgh, PA", "dist_to_metro_mi": 16.139498393907441, "energy_community": "No", "nri_risk_score": null, "nri_risk_rating": "", "nri_earthquake": "", "nri_tornado": "", "nri_hurricane": "", "wetland_overlap": "", "protected_area_nearby": "", "seismic_ss": 0.11, "seismic_s1": 0.052, "seismic_sdc": "B", "soil_type": "Udorthents, smoothed", "soil_drainage": "", "soil_hydric": "No", "storm_tornado_count": 0, "storm_wind_count": 0, "fiber_max_speed_mbps": 1200, "has_air_permit": false, "total_score": 78.617058520710785, "score_gas": 20.0, "score_substation": 15.0, "score_tx_redundancy": 10.0, "score_brownfield": 16.0, "score_state": 11, "score_water": 0.0, "score_metro": 7.3100836010154264, "score_utility_rate": 5.0, "score_parcel": 3.0, "score_air_permit": 0.0, "score_fiber": 10.0, "score_opportunity_zone": 0.0, "score_flood_risk": 5.0, "score_seismic": 10.0, "opportunity_zone": false, "flood_zone": "", "eia860_retired": false, "infra_score": 112.31008360101542, "score_retirement_mult": 0.7 }, "geometry": { "type": "Point", "coordinates": [ -80.6096077, 40.423167189999944 ] } },
{ "type": "Feature", "properties": { "Plant_Name": "Kammer Plant", "Street_Address": "", "City": "Moundsville", "County": "", "State": "WV", "Latitude": 39.838189, "Longitude": -80.818103, "source": "GEM_COAL", "site_id": "GEM_L100000104253", "brownfield_type": "Coal", "naics_code": "", "total_mw": 712.5, "current_owner": "None", "owner_source": "WV_STATEWIDE", "franchise_tax_status": "", "nearest_sub_kv": 765.0, "dist_to_sub_mi": 0.13237456777216045, "tx_lines_5mi": 10, "sub_capacity_mva_est": "1000-2000", "grid_capacity_mw_est": 4000.0, "county_generation_mw": null, "transmission_utility": "", "dist_to_pipeline_mi": 0.57949192297137353, "pipeline_operator": "Texas Eastern Trans Co", "pipeline_type": "Interstate", "pipeline_dia_est": "30-42\"", "pipeline_pressure_psi": 1000.0, "pipeline_operators_5mi": "Columbia Gas Trans Co; Dominion Transmission Co; Rover Pipeline; Texas Eastern Trans Co", "pipeline_max_dia_inches": 42.0, "pipeline_best_operator": "Columbia Gas Trans Co", "dist_to_water_mi": 0.24020360955151102, "water_basin": "Upper Ohio-Wheeling (HUC8: 05030106)", "water_permitted_af": "", "parcel_acres": 242.54828135, "cad_acres": "242.5", "osm_acres": "", "acres_source": null, "retirement_confidence": "UNVERIFIED", "retirement_signals": "", "rcra_corrective_action": "", "nearest_metro": "Pittsburgh, PA", "dist_to_metro_mi": 34.328566241781807, "energy_community": "No", "nri_risk_score": null, "nri_risk_rating": "", "nri_earthquake": "", "nri_tornado": "", "nri_hurricane": "", "wetland_overlap": "", "protected_area_nearby": "", "seismic_ss": 0.13, "seismic_s1": 0.056, "seismic_sdc": "B", "soil_type": "Udorthents", "soil_drainage": "", "soil_hydric": "No", "storm_tornado_count": 0, "storm_wind_count": 0, "fiber_max_speed_mbps": 1200, "has_air_permit": false, "total_score": 78.595000605125449, "score_gas": 17.0, "score_substation": 15.0, "score_tx_redundancy": 10.0, "score_brownfield": 14.0, "score_state": 11, "score_water": 8.0, "score_metro": 4.2785722930363654, "score_utility_rate": 5.0, "score_parcel": 3.0, "score_air_permit": 0.0, "score_fiber": 10.0, "score_opportunity_zone": 0.0, "score_flood_risk": 5.0, "score_seismic": 10.0, "opportunity_zone": false, "flood_zone": "", "eia860_retired": false, "infra_score": 112.27857229303636, "score_retirement_mult": 0.7 }, "geometry": { "type": "Point", "coordinates": [ -80.818103, 39.838189 ] } },
{ "type": "Feature", "properties": { "Plant_Name": "COLUMBIAN CHEMICALS COMPANY", "Street_Address": "ROUTE 2", "City": "PROCTOR", "County": "MARSHALL", "State": "WV", "Latitude": 39.75673, "Longitude": -80.805394, "source": "FRS", "site_id": "FRS_110010443029", "brownfield_type": "Chemical Plant", "naics_code": "325", "total_mw": null, "current_owner": "CONSOL RCPC LLC", "owner_source": "WV_STATEWIDE", "franchise_tax_status": "", "nearest_sub_kv": 138.0, "dist_to_sub_mi": 2.6432370646012036, "tx_lines_5mi": 4, "sub_capacity_mva_est": "50-200", "grid_capacity_mw_est": 525.0, "county_generation_mw": 1748.0, "transmission_utility": "Wheeling Power Co", "dist_to_pipeline_mi": 1.7251471363094431, "pipeline_operator": "Dominion Transmission Co", "pipeline_type": "Interstate", "pipeline_dia_est": "20-36\" (Interstate)", "pipeline_pressure_psi": 1000.0, "pipeline_operators_5mi": "Columbia Gas Trans Co; Dominion Transmission Co; Texas Eastern Trans Co", "pipeline_max_dia_inches": 36.0, "pipeline_best_operator": "Columbia Gas Trans Co", "dist_to_water_mi": 2.8589778369657539, "water_basin": "Little Muskingum-Middle Island (HUC8: 05030201)", "water_permitted_af": "", "parcel_acres": 156.7366502, "cad_acres": "156.7", "osm_acres": "", "acres_source": null, "retirement_confidence": "UNVERIFIED", "retirement_signals": "", "rcra_corrective_action": "", "nearest_metro": "Pittsburgh, PA", "dist_to_metro_mi": 37.669498662408664, "energy_community": "No", "nri_risk_score": 56.806615776081429, "nri_risk_rating": "Relatively Low", "nri_earthquake": "Very Low", "nri_tornado": "Relatively Low", "nri_hurricane": "Very Low", "wetland_overlap": "", "protected_area_nearby": "", "seismic_ss": 0.13, "seismic_s1": 0.056, "seismic_sdc": "B", "soil_type": "Culleoka", "soil_drainage": "Well drained", "soil_hydric": "No", "storm_tornado_count": 1, "storm_wind_count": 44, "fiber_max_speed_mbps": 0, "has_air_permit": true, "total_score": 62.957834110271804, "score_gas": 13.0, "score_substation": 5.0, "score_tx_redundancy": 10.0, "score_brownfield": 14.0, "score_state": 11, "score_water": 3.1410221630342461, "score_metro": 3.7217502229318891, "score_utility_rate": 7.0769906287078754, "score_parcel": 3.0, "score_air_permit": 5.0, "score_fiber": 0.0, "score_opportunity_zone": 0.0, "score_flood_risk": 5.0, "score_seismic": 10.0, "opportunity_zone": false, "flood_zone": "", "eia860_retired": false, "infra_score": 89.939763014674014, "score_retirement_mult": 0.7 }, "geometry": { "type": "Point", "coordinates": [ -80.805394, 39.75673 ] } },
{ "type": "Feature", "properties": { "Plant_Name": "PPG Natrium Plant", "Street_Address": "", "City": "New Martinsville", "County": "", "State": "WV", "Latitude": 39.746519, "Longitude": -80.853631, "source": "GEM_COAL", "site_id": "GEM_L100000104263", "brownfield_type": "Coal", "naics_code": "", "total_mw": 82.0, "current_owner": "EAGLE NATRIUM LLC", "owner_source": "WV_STATEWIDE", "franchise_tax_status": "", "nearest_sub_kv": 138.0, "dist_to_sub_mi": 0.60997994177158021, "tx_lines_5mi": 3, "sub_capacity_mva_est": "50-200", "grid_capacity_mw_est": 425.0, "county_generation_mw": null, "transmission_utility": "", "dist_to_pipeline_mi": 0.35471149957652437, "pipeline_operator": "Dominion Transmission Co", "pipeline_type": "Interstate", "pipeline_dia_est": "20-36\" (Interstate)", "pipeline_pressure_psi": 1000.0, "pipeline_operators_5mi": "Columbia Gas Trans Co; Dominion Transmission Co; Texas Eastern Trans Co", "pipeline_max_dia_inches": 36.0, "pipeline_best_operator": "Columbia Gas Trans Co", "dist_to_water_mi": 2.4610665843077464, "water_basin": "Little Muskingum-Middle Island (HUC8: 05030201)", "water_permitted_af": "", "parcel_acres": 334.76625499, "cad_acres": "334.8", "osm_acres": "", "acres_source": null, "retirement_confidence": "UNVERIFIED", "retirement_signals": "", "rcra_corrective_action": "", "nearest_metro": "Pittsburgh, PA", "dist_to_metro_mi": 39.968331930379044, "energy_community": "No", "nri_risk_score": null, "nri_risk_rating": "", "nri_earthquake": "", "nri_tornado": "", "nri_hurricane": "", "wetland_overlap": "Riverine", "protected_area_nearby": "", "seismic_ss": 0.13, "seismic_s1": 0.056, "seismic_sdc": "B", "soil_type": "Udorthents", "soil_drainage": "", "soil_hydric": "No", "storm_tornado_count": 0, "storm_wind_count": 0, "fiber_max_speed_mbps": 0, "has_air_permit": false, "total_score": 61.514281332440348, "score_gas": 20.0, "score_substation": 5.0, "score_tx_redundancy": 7.0, "score_brownfield": 14.0, "score_state": 11, "score_water": 3.5389334156922536, "score_metro": 3.338611344936826, "score_utility_rate": 5.0, "score_parcel": 4.0, "score_air_permit": 0.0, "score_fiber": 0.0, "score_opportunity_zone": 0.0, "score_flood_risk": 5.0, "score_seismic": 10.0, "opportunity_zone": false, "flood_zone": "", "eia860_retired": false, "infra_score": 87.877544760629078, "score_retirement_mult": 0.7 }, "geometry": { "type": "Point", "coordinates": [ -80.853631, 39.746519 ] } },
{ "type": "Feature", "properties": { "Plant_Name": "White Park Woodlands", "Street_Address": "1001 Mississippi Street ", "City": "MORGANTOWN", "County": "", "State": "WV", "Latitude": 39.61041201, "Longitude": -79.95827904, "source": "SRP_REDEV_MAPPER", "site_id": "SRP_262702", "brownfield_type": "Other Brownfield", "naics_code": "", "total_mw": null, "current_owner": "CITY OF MORGANTOWN", "owner_source": "WV_STATEWIDE", "franchise_tax_status": "", "nearest_sub_kv": 138.0, "dist_to_sub_mi": 1.3620298217328395, "tx_lines_5mi": 1, "sub_capacity_mva_est": "50-200", "grid_capacity_mw_est": 225.0, "county_generation_mw": null, "transmission_utility": "", "dist_to_pipeline_mi": 0.39997160841963136, "pipeline_operator": "Dominion Transmission Co", "pipeline_type": "Interstate", "pipeline_dia_est": "20-36\" (Interstate)", "pipeline_pressure_psi": 1000.0, "pipeline_operators_5mi": "Dominion Transmission Co", "pipeline_max_dia_inches": 36.0, "pipeline_best_operator": "Dominion Transmission Co", "dist_to_water_mi": 0.046675646336044319, "water_basin": "Upper Monongahela (HUC8: 05020003)", "water_permitted_af": "", "parcel_acres": 170.0, "cad_acres": "170.0", "osm_acres": "", "acres_source": "EPA_REDEV_MAPPER", "retirement_confidence": "UNVERIFIED", "retirement_signals": "", "rcra_corrective_action": "", "nearest_metro": "Pittsburgh, PA", "dist_to_metro_mi": 38.56758803632848, "energy_community": "No", "nri_risk_score": null, "nri_risk_rating": "", "nri_earthquake": "", "nri_tornado": "", "nri_hurricane": "", "wetland_overlap": "Riverine; Freshwater Forested/Shrub Wetland", "protected_area_nearby": "", "seismic_ss": 0.12, "seismic_s1": 0.053, "seismic_sdc": "B", "soil_type": "Lobdell", "soil_drainage": "Moderately well drained", "soil_hydric": "No", "storm_tornado_count": 0, "storm_wind_count": 0, "fiber_max_speed_mbps": 10000, "has_air_permit": false, "total_score": 60.600448062428342, "score_gas": 20.0, "score_substation": 5.0, "score_tx_redundancy": 1.0, "score_brownfield": 5.0, "score_state": 11, "score_water": 8.0, "score_metro": 3.5720686606119187, "score_utility_rate": 5.0, "score_parcel": 3.0, "score_air_permit": 0.0, "score_fiber": 10.0, "score_opportunity_zone": 0.0, "score_flood_risk": 5.0, "score_seismic": 10.0, "opportunity_zone": false, "flood_zone": "", "eia860_retired": false, "infra_score": 86.572068660611919, "score_retirement_mult": 0.7 }, "geometry": { "type": "Point", "coordinates": [ -79.95827904, 39.61041201 ] } },
{ "type": "Feature", "properties": { "Plant_Name": "ZOETIS LLC", "Street_Address": "1 DUGGAR DR", "City": "SAINT MARYS", "County": "PLEASANTS", "State": "WV", "Latitude": 39.353336, "Longitude": -81.313411, "source": "FRS", "site_id": "FRS_110000344789", "brownfield_type": "Chemical Plant", "naics_code": "325", "total_mw": null, "current_owner": "CYTEC INDUSTRIES INC", "owner_source": "WV_STATEWIDE", "franchise_tax_status": "", "nearest_sub_kv": 138.0, "dist_to_sub_mi": 0.31608743232865844, "tx_lines_5mi": 3, "sub_capacity_mva_est": "50-200", "grid_capacity_mw_est": 425.0, "county_generation_mw": 1756.0, "transmission_utility": "American Transmission Systems Inc", "dist_to_pipeline_mi": 3.2621100576892417, "pipeline_operator": "Hope Natural Gas Co", "pipeline_type": "Intrastate", "pipeline_dia_est": "6-20\" (Intrastate)", "pipeline_pressure_psi": 300.0, "pipeline_operators_5mi": "Dominion Transmission Co; Hope Natural Gas Co", "pipeline_max_dia_inches": 20.0, "pipeline_best_operator": "Dominion Transmission Co", "dist_to_water_mi": 0.65139895343507648, "water_basin": "Little Muskingum-Middle Island (HUC8: 05030201)", "water_permitted_af": "", "parcel_acres": 477.14385982, "cad_acres": "477.1", "osm_acres": "", "acres_source": null, "retirement_confidence": "UNVERIFIED", "retirement_signals": "", "rcra_corrective_action": "", "nearest_metro": "Charleston, WV", "dist_to_metro_mi": 59.497049469348504, "energy_community": "No", "nri_risk_score": 20.260814249363868, "nri_risk_rating": "Very Low", "nri_earthquake": "Very Low", "nri_tornado": "Very Low", "nri_hurricane": "Very Low", "wetland_overlap": "Riverine; Freshwater Forested/Shrub Wetland; Freshwater Emergent Wetland", "protected_area_nearby": "", "seismic_ss": 0.15, "seismic_s1": 0.062, "seismic_sdc": "B", "soil_type": "Huntington", "soil_drainage": "Well drained", "soil_hydric": "No", "storm_tornado_count": 0, "storm_wind_count": 25, "fiber_max_speed_mbps": 0, "has_air_permit": false, "total_score": 56.921396896660077, "score_gas": 10.475779884621517, "score_substation": 5.0, "score_tx_redundancy": 7.0, "score_brownfield": 14.0, "score_state": 11, "score_water": 7.3944041862596936, "score_metro": 0.083825088441915607, "score_utility_rate": 7.3622721216198457, "score_parcel": 4.0, "score_air_permit": 0.0, "score_fiber": 0.0, "score_opportunity_zone": 0.0, "score_flood_risk": 5.0, "score_seismic": 10.0, "opportunity_zone": false, "flood_zone": "", "eia860_retired": false, "infra_score": 81.316281280942974, "score_retirement_mult": 0.7 }, "geometry": { "type": "Point", "coordinates": [ -81.313411, 39.353336 ] } },
{ "type": "Feature", "properties": { "Plant_Name": "Beech Bottom Industrial Park - Parcel No. 2 Site", "Street_Address": "2481 River Road", "City": "BEECH BOTTOM", "County": "", "State": "WV", "Latitude": 40.213864, "Longitude": -80.65127, "source": "SRP_REDEV_MAPPER", "site_id": "SRP_219586", "brownfield_type": "Other Brownfield", "naics_code": "", "total_mw": null, "current_owner": "BUSINESS DEV CORP OF THE NORTHERN PANHANDLE", "owner_source": "WV_STATEWIDE", "franchise_tax_status": "", "nearest_sub_kv": 138.0, "dist_to_sub_mi": 0.70810971579248194, "tx_lines_5mi": 4, "sub_capacity_mva_est": "50-200", "grid_capacity_mw_est": 525.0, "county_generation_mw": null, "transmission_utility": "", "dist_to_pipeline_mi": 1.6846375855821989, "pipeline_operator": "Columbia Gas Trans Co", "pipeline_type": "Interstate", "pipeline_dia_est": "24-30\"", "pipeline_pressure_psi": 1000.0, "pipeline_operators_5mi": "Columbia Gas Trans Co", "pipeline_max_dia_inches": 30.0, "pipeline_best_operator": "Columbia Gas Trans Co", "dist_to_water_mi": 3.526378829039587, "water_basin": "Upper Ohio-Wheeling (HUC8: 05030106)", "water_permitted_af": "", "parcel_acres": 390.74, "cad_acres": "390.7", "osm_acres": "", "acres_source": "EPA_REDEV_MAPPER", "retirement_confidence": "UNVERIFIED", "retirement_signals": "", "rcra_corrective_action": "", "nearest_metro": "Pittsburgh, PA", "dist_to_metro_mi": 16.585517520568953, "energy_community": "No", "nri_risk_score": null, "nri_risk_rating": "", "nri_earthquake": "", "nri_tornado": "", "nri_hurricane": "", "wetland_overlap": "", "protected_area_nearby": "", "seismic_ss": 0.12, "seismic_s1": 0.053, "seismic_sdc": "B", "soil_type": "Udorthents,dumps,low", "soil_drainage": "Well drained", "soil_hydric": "No", "storm_tornado_count": 0, "storm_wind_count": 0, "fiber_max_speed_mbps": 0, "has_air_permit": false, "total_score": 54.396557775605913, "score_gas": 13.0, "score_substation": 5.0, "score_tx_redundancy": 10.0, "score_brownfield": 5.0, "score_state": 11, "score_water": 2.473621170960413, "score_metro": 7.2357470799051749, "score_utility_rate": 5.0, "score_parcel": 4.0, "score_air_permit": 0.0, "score_fiber": 0.0, "score_opportunity_zone": 0.0, "score_flood_risk": 5.0, "score_seismic": 10.0, "opportunity_zone": false, "flood_zone": "", "eia860_retired": false, "infra_score": 77.709368250865595, "score_retirement_mult": 0.7 }, "geometry": { "type": "Point", "coordinates": [ -80.65127, 40.213864 ] } },
{ "type": "Feature", "properties": { "Plant_Name": "CENTRAL SUPPLY COMPANY OF WEST VIRGINIA", "Street_Address": "ROUTE 73 NORTH", "City": "BRIDGEPORT", "County": "HARRISON", "State": "WV", "Latitude": 39.351188, "Longitude": -80.222007, "source": "FRS", "site_id": "FRS_110057521686", "brownfield_type": "Minerals/Cement Plant", "naics_code": "327", "total_mw": null, "current_owner": "C1 LLC 1/2 INT & HEATHER FINLY IRRV TRT FBO GEORGE FINLY ETAL", "owner_source": "WV_STATEWIDE", "franchise_tax_status": "", "nearest_sub_kv": 138.0, "dist_to_sub_mi": 1.2596582453646237, "tx_lines_5mi": 1, "sub_capacity_mva_est": "50-200", "grid_capacity_mw_est": 225.0, "county_generation_mw": 2052.0, "transmission_utility": "Monongahela Power Co", "dist_to_pipeline_mi": 0.079022417815949694, "pipeline_operator": "Dominion Transmission Co", "pipeline_type": "Interstate", "pipeline_dia_est": "20-36\" (Interstate)", "pipeline_pressure_psi": 1000.0, "pipeline_operators_5mi": "Dominion Transmission Co; Equitrans Inc", "pipeline_max_dia_inches": 36.0, "pipeline_best_operator": "Dominion Transmission Co", "dist_to_water_mi": 3.9808146808508313, "water_basin": "West Fork (HUC8: 05020002)", "water_permitted_af": "", "parcel_acres": 59.01980842, "cad_acres": "59.0", "osm_acres": "", "acres_source": null, "retirement_confidence": "UNVERIFIED", "retirement_signals": "", "rcra_corrective_action": "", "nearest_metro": "Pittsburgh, PA", "dist_to_metro_mi": 53.561868900493963, "energy_community": "No", "nri_risk_score": 73.600508905852408, "nri_risk_rating": "Relatively Low", "nri_earthquake": "Very Low", "nri_tornado": "Relatively Low", "nri_hurricane": "Relatively Low", "wetland_overlap": "", "protected_area_nearby": "", "seismic_ss": 0.13, "seismic_s1": 0.055, "seismic_sdc": "B", "soil_type": "Melvin", "soil_drainage": "Poorly drained", "soil_hydric": "Yes", "storm_tornado_count": 1, "storm_wind_count": 133, "fiber_max_speed_mbps": 0, "has_air_permit": false, "total_score": 53.518135503480678, "score_gas": 20.0, "score_substation": 5.0, "score_tx_redundancy": 1.0, "score_brownfield": 12.0, "score_state": 11, "score_water": 2.0191853191491687, "score_metro": 1.0730218499176725, "score_utility_rate": 7.3622721216198457, "score_parcel": 2.0, "score_air_permit": 0.0, "score_fiber": 0.0, "score_opportunity_zone": 0.0, "score_flood_risk": 5.0, "score_seismic": 10.0, "opportunity_zone": false, "flood_zone": "", "eia860_retired": false, "infra_score": 76.454479290686692, "score_retirement_mult": 0.7 }, "geometry": { "type": "Point", "coordinates": [ -80.222007, 39.351188 ] } },
{ "type": "Feature", "properties": { "Plant_Name": "LOWE PRODUCTS COMPANY, INC.", "Street_Address": "777 POTOMAC FARMS DRIVE", "City": "SHEPHERDSTOWN", "County": "JEFFERSON", "State": "WV", "Latitude": 39.432828, "Longitude": -77.825799, "source": "FRS", "site_id": "FRS_110044954332", "brownfield_type": "Wood/Lumber Mill", "naics_code": "321", "total_mw": null, "current_owner": "OLDCASTLE LAWN & GARDEN INC", "owner_source": "WV_STATEWIDE", "franchise_tax_status": "", "nearest_sub_kv": 138.0, "dist_to_sub_mi": 0.15249899284892349, "tx_lines_5mi": 1, "sub_capacity_mva_est": "50-200", "grid_capacity_mw_est": 225.0, "county_generation_mw": 4.0, "transmission_utility": "Appalachian Power Co", "dist_to_pipeline_mi": 9.2872467579213165, "pipeline_operator": "Dominion Transmission Co", "pipeline_type": "Interstate", "pipeline_dia_est": "20-36\" (Interstate)", "pipeline_pressure_psi": 1000.0, "pipeline_operators_5mi": "", "pipeline_max_dia_inches": 36.0, "pipeline_best_operator": "Dominion Transmission Co", "dist_to_water_mi": 0.98856577581625538, "water_basin": "Conococheague-Opequon (HUC8: 02070004)", "water_permitted_af": "", "parcel_acres": 41.81041708, "cad_acres": "41.8", "osm_acres": "", "acres_source": null, "retirement_confidence": "UNVERIFIED", "retirement_signals": "", "rcra_corrective_action": "", "nearest_metro": "Hagerstown, MD--WV--PA--VA", "dist_to_metro_mi": 3.339904177085991, "energy_community": "No", "nri_risk_score": 47.805343511450381, "nri_risk_rating": "Relatively Low", "nri_earthquake": "Relatively Low", "nri_tornado": "Relatively Low", "nri_hurricane": "Relatively Low", "wetland_overlap": "", "protected_area_nearby": "", "seismic_ss": 0.14, "seismic_s1": 0.041, "seismic_sdc": "A", "soil_type": "Hagerstown", "soil_drainage": "Well drained", "soil_hydric": "No", "storm_tornado_count": 3, "storm_wind_count": 107, "fiber_max_speed_mbps": 1200, "has_air_permit": false, "total_score": 53.08424253299907, "score_gas": 0.9978545389101573, "score_substation": 5.0, "score_tx_redundancy": 1.0, "score_brownfield": 10.0, "score_state": 11, "score_water": 6.0457368967349785, "score_metro": 9.4433493038190015, "score_utility_rate": 7.3476914505345441, "score_parcel": 0.0, "score_air_permit": 0.0, "score_fiber": 10.0, "score_opportunity_zone": 0.0, "score_flood_risk": 5.0, "score_seismic": 10.0, "opportunity_zone": false, "flood_zone": "", "eia860_retired": false, "infra_score": 75.834632189998672, "score_retirement_mult": 0.7 }, "geometry": { "type": "Point", "coordinates": [ -77.825799, 39.432828 ] } }
]
}
